{"type":"FeatureCollection", "features": [
{"type":"Feature","geometry":{"type":"Polygon","coordinates":[[[7.385290623000059,5.060147761999593],[7.392455578000068,5.062774657999582],[7.398077965000028,5.070712089999577],[7.400393009000025,5.078979968999594],[7.402708054000071,5.08857107199959],[7.402377129000056,5.0981621739995955],[7.401715755000056,5.104776381999622],[7.397747040000071,5.113044738999591],[7.392455578000068,5.121312617999595],[7.388486862000036,5.126935004999607],[7.3822031020000605,5.133549212999584],[7.369635582000058,5.134541511999601],[7.365308285000027,5.13410854299957],[7.361540318000039,5.1323108669996],[7.357000351000067,5.130892276999585],[7.351112843000065,5.125495433999634],[7.343263149000053,5.121079921999589],[7.332468987000025,5.114701747999632],[7.3202033040000725,5.102926730999585],[7.327964783000028,5.099484920999615],[7.3345789910000585,5.099153995999589],[7.344501019000061,5.100477218999565],[7.349131107000061,5.103784083999596],[7.356406689000037,5.110729217999627],[7.363021374000028,5.1163516039995836],[7.369305134000057,5.120320319999619],[7.37691164000006,5.118997573999592],[7.3825340270000765,5.115359782999581],[7.3848490720000655,5.110729217999627],[7.386502743000052,5.099153995999589],[7.387494564000065,5.089563369999617],[7.387494564000065,5.08195638699959],[7.3861718180000375,5.073688506999594],[7.3855104450000235,5.0647592539995845],[7.385290623000059,5.060147761999593]]]},"properties":{"OBJECTID":231,"LGACode":"1001","LGAName":"Aba North","StateCode":"AB","Source":"WHO","Timestamp":"2014-02-26T00:00:00.000Z","GlobalID":"{9A46428E-7801-493E-AD51-6B30BDB35115}","AMAPCODE":"NIE ABS EZA","SHAPE_STAr":0.00185743023644,"SHAPE_STLe":0.286931669505,"Shape_Leng":0.286931669505,"Shape_Area":0.00185743022254}},
{"type":"Feature","geometry":{"type":"Polygon","coordinates":[[[7.385290623000059,5.060147761999593],[7.3855104450000235,5.0647592539995845],[7.3861718180000375,5.073688506999594],[7.387494564000065,5.08195638699959],[7.387494564000065,5.089563369999617],[7.386502743000052,5.099153995999589],[7.3848490720000655,5.110729217999627],[7.3825340270000765,5.115359782999581],[7.37691164000006,5.118997573999592],[7.369305134000057,5.120320319999619],[7.363021374000028,5.1163516039995836],[7.356406689000037,5.110729217999627],[7.349131107000061,5.103784083999596],[7.344501019000061,5.100477218999565],[7.3345789910000585,5.099153995999589],[7.327964783000028,5.099484920999615],[7.3202033040000725,5.102926730999585],[7.3178691860000535,5.0996947289995695],[7.313825607000069,5.094095229999596],[7.311372280000057,5.0857548709996125],[7.308918953000045,5.080358027999599],[7.3066811560000255,5.077480315999608],[7.307129383000074,5.074680804999633],[7.307129383000074,5.069058417999608],[7.308782578000034,5.062444209999569],[7.314074516000061,5.055168151999579],[7.325318813000025,5.053183555999578],[7.3372249600000705,5.052191733999634],[7.349461555000061,5.052191733999634],[7.361036777000037,5.055498599999581],[7.367981911000072,5.055498599999581],[7.376250267000046,5.057483195999583],[7.3825340270000765,5.059136867999615],[7.385290623000059,5.060147761999593]]]},"properties":{"OBJECTID":232,"LGACode":"1002","LGAName":"Aba South","StateCode":"AB","Source":"WHO","Timestamp":"2014-02-26T00:00:00.000Z","GlobalID":"{AF84156B-EF38-4DB8-AAB4-6DDA8898BCAD}","AMAPCODE":"NIE ABS ABA","SHAPE_STAr":0.00400956150077,"SHAPE_STLe":0.253419215529,"Shape_Leng":0.253419215529,"Shape_Area":0.00400956152107}},
{"type":"Feature","geometry":{"type":"Polygon","coordinates":[[[7.904579163000052,5.568675517999549],[7.899524212000073,5.562123298999577],[7.895391941000071,5.551447391999568],[7.886782646000029,5.545937537999553],[7.874385357000051,5.543871402999534],[7.856822014000045,5.539738654999582],[7.842014313000048,5.532506942999577],[7.824106693000033,5.5197653769995805],[7.814119816000073,5.5104670519995524],[7.808265686000027,5.507023334999565],[7.805510521000031,5.5104670519995524],[7.80310010900007,5.522520064999548],[7.803788662000042,5.535262107999568],[7.801033974000064,5.548003673999538],[7.795523643000025,5.558334826999597],[7.791047096000057,5.575209140999596],[7.788980484000036,5.583818435999574],[7.783814907000021,5.5951828959995575],[7.779338360000052,5.608957766999557],[7.7727952000000755,5.62479877499956],[7.7683181760000375,5.634785651999571],[7.7641859050000335,5.644083976999548],[7.759364605000031,5.6551036829995684],[7.755232334000027,5.664746283999544],[7.749377728000068,5.6726665499995415],[7.737324715000055,5.6788654329995625],[7.72010612500003,5.682653426999565],[7.7097749710000585,5.6829977039995665],[7.701165676000073,5.6771435739995795],[7.68842363400006,5.671289443999542],[7.676026344000037,5.669911860999556],[7.664317608000031,5.6726665499995415],[7.656798363000065,5.67816162099957],[7.656225204000066,5.667845725999563],[7.661735058000034,5.662680148999537],[7.669311047000065,5.6551036829995684],[7.676543236000042,5.650282382999558],[7.679642200000046,5.643394946999562],[7.679297924000024,5.630309104999556],[7.673788071000046,5.623076915999589],[7.664834499000051,5.621355056999581],[7.65691375700004,5.620666503999556],[7.648648739000066,5.616878509999567],[7.639350891000049,5.609646319999545],[7.6341853140000335,5.601381778999592],[7.636251450000032,5.592772483999537],[7.641417027000045,5.578652858999562],[7.647271156000046,5.570387839999542],[7.652092457000037,5.563500403999546],[7.661046028000044,5.552824973999549],[7.669655323000029,5.543527125999596],[7.676198483000065,5.535606383999591],[7.682053089000021,5.529752253999591],[7.691350937000039,5.5245866779995705],[7.695939064000072,5.518277644999588],[7.701941013000067,5.517550944999569],[7.70490884800006,5.51757478699958],[7.707765102000054,5.518753051999543],[7.710626125000034,5.519352912999552],[7.711226940000073,5.51647186299956],[7.710693836000076,5.5124278069995745],[7.713566780000065,5.511874198999552],[7.717000961000053,5.5124788279995665],[7.7192888260000245,5.513073920999582],[7.723285198000042,5.514838218999582],[7.726707935000035,5.516596793999588],[7.729568958000071,5.5171971319995565],[7.734149933000025,5.517811774999572],[7.742755890000069,5.517303943999568],[7.745627880000028,5.5167498589995985],[7.7485008240000735,5.516195773999565],[7.7513852120000575,5.514488219999564],[7.754848003000062,5.512207984999554],[7.757159233000038,5.5104951859996],[7.758902073000057,5.508200168999608],[7.760077000000024,5.505323886999559],[7.759550095000064,5.500701903999554],[7.760157108000044,5.497243880999553],[7.75963020300003,5.4926228519995846],[7.760225773000059,5.490318774999576],[7.761395931000037,5.488019942999559],[7.763133049000033,5.486302852999573],[7.765460968000071,5.482859134999607],[7.768929005000074,5.480000972999616],[7.774117947000037,5.477157115999582],[7.77585601800007,5.4754400249995925],[7.778172016000042,5.473149775999593],[7.779921055000046,5.470277785999567],[7.781095982000067,5.467401980999542],[7.782862186000046,5.46279907199958],[7.784060001000056,5.457613944999568],[7.7846617700000715,5.454733848999561],[7.786410809000073,5.451861857999557],[7.787598133000074,5.4478321079995835],[7.788778782000066,5.444377898999604],[7.792839050000053,5.439794063999609],[7.798605919000068,5.436378001999548],[7.809011936000047,5.427803992999586],[7.82109880400003,5.423285006999593],[7.838315964000061,5.421692847999558],[7.8503508570000236,5.422367095999587],[7.853218079000042,5.4223899839996],[7.856083870000021,5.422412871999588],[7.858384132000023,5.421854972999572],[7.8612561230000315,5.421300887999602],[7.863561153000034,5.420166015999578],[7.865297794000069,5.418447970999565],[7.86648511900006,5.414418220999603],[7.8676609990000665,5.411540984999569],[7.8682680130000335,5.408082961999557],[7.87119197800007,5.402336120999605],[7.872947216000055,5.39888715699958],[7.876439095000024,5.393721103999598],[7.8839840890000215,5.384547233999551],[7.876111984000033,5.3689007759995535],[7.877982616000054,5.367052077999573],[7.880370140000026,5.366795539999595],[7.890454769000028,5.365587233999568],[7.901881218000026,5.363340854999583],[7.912165165000033,5.361089229999589],[7.920156002000056,5.361125945999598],[7.933869839000067,5.357740878999597],[7.941861153000048,5.357778071999568],[7.949857235000024,5.356665133999571],[7.957847118000073,5.35670185099956],[7.96241903300006,5.3555731769995845],[7.968125820000067,5.355598926999604],[7.972698212000067,5.3544712069996],[7.977263927000024,5.354492186999592],[7.982965946000036,5.3556680679995905],[7.98523902900007,5.357976912999617],[7.986370087000069,5.360280990999554],[7.987501144000021,5.3625850679995875],[7.986339092000038,5.36717700999958],[7.9863228800000465,5.3706250189995774],[7.984013081000056,5.376361846999583],[7.980556965000063,5.383243083999602],[7.978248119000057,5.3889789579995835],[7.973660946000051,5.393556117999582],[7.972493172000043,5.399298190999604],[7.969031811000036,5.407328128999597],[7.964424133000023,5.41650199899958],[7.959815979000041,5.42567586899955],[7.958648205000031,5.43141794199956],[7.956337929000028,5.4371538159995545],[7.954034805000047,5.441740989999554],[7.950583935000053,5.447473048999575],[7.947137833000056,5.452054976999565],[7.943693161000056,5.456635951999588],[7.939105988000051,5.461213111999573],[7.934503078000034,5.46923780399957],[7.931040764000046,5.4772682189995745],[7.928716183000064,5.486453055999603],[7.926406860000043,5.492188930999564],[7.9240927700000725,5.499074935999576],[7.921782970000037,5.504810809999558],[7.920620918000054,5.509404181999555],[7.914861202000052,5.520872115999537],[7.9079427720000695,5.535781859999565],[7.907911777000038,5.542678832999538],[7.906727791000037,5.551867961999591],[7.906692028000067,5.559915065999555],[7.905980110000028,5.564770221999566],[7.904579163000052,5.568675517999549]]]},"properties":{"OBJECTID":287,"LGACode":"1003","LGAName":"Arochukwu","StateCode":"AB","Source":"WHO","Timestamp":"2014-02-26T00:00:00.000Z","GlobalID":"{8D5FC351-80C5-49F0-8F57-64294E64C2E4}","AMAPCODE":"NIE ABS ACH","SHAPE_STAr":0.042799604574,"SHAPE_STLe":1.25168374015,"Shape_Leng":1.25168374015,"Shape_Area":0.0427996045992}},
{"type":"Feature","geometry":{"type":"Polygon","coordinates":[[[7.683955193000031,5.822346209999541],[7.6571168900000535,5.823951243999554],[7.631418705000045,5.825854777999564],[7.617618084000072,5.827282428999535],[7.60476875300003,5.8306136129995245],[7.597154617000056,5.833944797999557],[7.584781170000041,5.837275981999547],[7.570980549000067,5.8410830499995665],[7.566697598000076,5.84393882799953],[7.5519447330000276,5.843462943999564],[7.5490803720000486,5.830524444999539],[7.546136379000075,5.82169294399955],[7.545646191000058,5.8123712539995225],[7.548589706000031,5.801577567999533],[7.5490803720000486,5.79421806299957],[7.5515336990000606,5.789311885999568],[7.558402061000036,5.783915042999541],[7.564289570000029,5.775083541999565],[7.568214893000061,5.76134586299953],[7.569196224000052,5.74858999299957],[7.568705559000023,5.738777160999523],[7.564289570000029,5.725039958999577],[7.564289570000029,5.716208457999549],[7.560364723000021,5.712774276999574],[7.545646191000058,5.71326494199953],[7.528473854000027,5.714246272999587],[7.508358479000037,5.7113022799995425],[7.485789776000047,5.70345210999956],[7.466164589000073,5.6995272639995385],[7.473524094000028,5.688733577999535],[7.47563505200003,5.681345462999582],[7.4794116020000265,5.6681270599995885],[7.492658615000039,5.647521018999576],[7.502470970000047,5.634764670999536],[7.5147366520000665,5.612686633999561],[7.527002335000077,5.603364467999565],[7.550061703000039,5.588645934999562],[7.57164907500004,5.578833579999553],[7.579989910000052,5.5665678979996],[7.581952095000075,5.553320884999565],[7.579989910000052,5.5395832059995564],[7.580971241000042,5.527317523999578],[7.577647209000077,5.511944293999575],[7.594217777000041,5.506711482999579],[7.605257034000033,5.505528449999573],[7.606794357000069,5.507577895999555],[7.619371414000057,5.500503539999604],[7.6235375400000285,5.496211051999569],[7.625438213000053,5.491595744999552],[7.628192902000023,5.480299949999587],[7.63287639600003,5.471208571999551],[7.6427946090000205,5.452474593999543],[7.648028851000049,5.445036410999578],[7.651240826000048,5.440418719999559],[7.653473854000027,5.442708014999573],[7.655248165000047,5.44422292699959],[7.656886101000055,5.445621013999572],[7.660308838000049,5.447381019999549],[7.663176060000069,5.447402953999564],[7.667761803000076,5.44744110099957],[7.669498920000022,5.4457230569995865],[7.671810150000056,5.44400978099957],[7.674120903000073,5.442296981999604],[7.675851822000025,5.441156863999583],[7.678156853000076,5.440021991999547],[7.6821761130000255,5.439476966999606],[7.685627937000049,5.438351153999556],[7.689074039000046,5.437800883999598],[7.691372871000055,5.437242984999595],[7.69310998900005,5.435524939999594],[7.695415020000041,5.434390067999544],[7.69773101800007,5.4320998189995455],[7.700029850000021,5.431540965999596],[7.70056390800005,5.435585021999581],[7.700534821000074,5.438470839999553],[7.6999387740000325,5.440774917999579],[7.699899197000034,5.444815158999553],[7.701015949000066,5.447709083999586],[7.701567173000057,5.450022220999572],[7.702679157000035,5.453494071999606],[7.70319509500007,5.459269999999585],[7.703166008000039,5.462154864999576],[7.703144073000031,5.464464187999543],[7.703114986000059,5.467349051999567],[7.703653812000027,5.470816134999596],[7.70361423500003,5.474855899999538],[7.70471477500007,5.479482173999575],[7.704679966000072,5.482944964999592],[7.704071999000064,5.486402987999592],[7.702318192000065,5.489850997999595],[7.699989796000069,5.493295192999573],[7.697673798000039,5.49558496499956],[7.694784164000054,5.49786996799955],[7.693047047000051,5.499588012999577],[7.69130420700003,5.5018830299995685],[7.69011688200004,5.5059127809995845],[7.691235065000056,5.508808135999558],[7.691780090000065,5.511697768999542],[7.692903996000042,5.514016150999546],[7.6940269470000535,5.516333102999545],[7.695939064000072,5.518277644999588],[7.691350937000039,5.5245866779995705],[7.682053089000021,5.529752253999591],[7.676198483000065,5.535606383999591],[7.669655323000029,5.543527125999596],[7.661046028000044,5.552824973999549],[7.652092457000037,5.563500403999546],[7.647271156000046,5.570387839999542],[7.641417027000045,5.578652858999562],[7.636251450000032,5.592772483999537],[7.6341853140000335,5.601381778999592],[7.639350891000049,5.609646319999545],[7.648648739000066,5.616878509999567],[7.65691375700004,5.620666503999556],[7.664834499000051,5.621355056999581],[7.673788071000046,5.623076915999589],[7.679297924000024,5.630309104999556],[7.679642200000046,5.643394946999562],[7.676543236000042,5.650282382999558],[7.669311047000065,5.6551036829995684],[7.661735058000034,5.662680148999537],[7.656225204000066,5.667845725999563],[7.656798363000065,5.67816162099957],[7.65691375700004,5.680243014999531],[7.664145470000049,5.692640304999567],[7.6748213770000575,5.708826064999536],[7.683430672000043,5.722256183999569],[7.692728519000069,5.734998225999584],[7.700649261000022,5.74154138599957],[7.705125809000037,5.748428821999566],[7.709258556000064,5.7573823929995545],[7.709602833000075,5.768057822999552],[7.713390827000068,5.77976655999955],[7.713735104000023,5.789064883999523],[7.714940548000073,5.8031840319995505],[7.714596272000051,5.810415744999548],[7.713078976000077,5.818000792999569],[7.7042303090000255,5.819192409999521],[7.683955193000031,5.822346209999541]]]},"properties":{"OBJECTID":309,"LGACode":"1004","LGAName":"Bende","StateCode":"AB","Source":"WHO","Timestamp":"2014-02-26T00:00:00.000Z","GlobalID":"{86825397-9D71-4E8A-819E-55F5BFD0110A}","AMAPCODE":"NIE ABS BND","SHAPE_STAr":0.0491128060739,"SHAPE_STLe":1.28076549404,"Shape_Leng":1.28076549404,"Shape_Area":0.0491128060522}},
{"type":"Feature","geometry":{"type":"Polygon","coordinates":[[[7.577647209000077,5.511944293999575],[7.575573921000054,5.512598990999588],[7.56134605400007,5.512108325999555],[7.552023888000066,5.509164332999587],[7.542587280000021,5.503124713999553],[7.534852028000046,5.482670783999566],[7.530927181000038,5.4605927469995414],[7.525039673000037,5.447836398999551],[7.515809536000064,5.438166617999553],[7.5078678130000736,5.4345893859995416],[7.509830475000057,5.4277205469995655],[7.511301994000062,5.415945529999569],[7.512283325000056,5.410058021999561],[7.510811329000035,5.403189658999553],[7.510321140000031,5.390923976999588],[7.510321140000031,5.380129813999586],[7.512773991000074,5.372770785999584],[7.525039673000037,5.364920615999601],[7.539268017000041,5.361977099999581],[7.547117710000066,5.358051776999599],[7.553005219000055,5.354617595999572],[7.553005219000055,5.347748755999578],[7.547117710000066,5.344805240999613],[7.544332981000026,5.34455203999958],[7.5363240240000655,5.343823909999556],[7.527002335000077,5.3413705829996125],[7.519642830000065,5.337936400999569],[7.517680168000028,5.332048892999572],[7.521114826000031,5.323217391999596],[7.5270276070000355,5.318238257999616],[7.530436516000067,5.315367698999574],[7.5320696830000315,5.31411552399959],[7.5406980510000485,5.309052943999563],[7.543559074000028,5.309654235999555],[7.546436787000062,5.3085231779995645],[7.549321175000046,5.306815146999603],[7.551620007000054,5.306255816999566],[7.556207180000058,5.306293010999566],[7.55905580500007,5.308046817999578],[7.560764790000064,5.309216021999596],[7.562449932000048,5.312692164999578],[7.564692020000052,5.317903995999569],[7.566382885000053,5.320804118999599],[7.568091869000057,5.321971892999587],[7.572082996000063,5.324313163999583],[7.575521946000037,5.3243398669995825],[7.578973770000062,5.323214053999596],[7.58185195900006,5.3220829959996045],[7.583015919000048,5.320361136999571],[7.587619781000057,5.3186669349996105],[7.591633797000043,5.318698882999551],[7.595057011000051,5.320457934999568],[7.596765041000027,5.321627139999565],[7.599036217000047,5.323953151999593],[7.601316929000063,5.325126170999559],[7.60302019100004,5.326870917999594],[7.606465816000026,5.326322078999569],[7.607642174000034,5.323445796999571],[7.6099629400000595,5.320579051999575],[7.612835884000048,5.320024966999579],[7.615707874000066,5.319470881999609],[7.618012905000057,5.318335055999562],[7.6220331190000365,5.317790984999581],[7.625466824000056,5.318396090999607],[7.628890038000065,5.320155143999602],[7.630599022000069,5.32132196399958],[7.63460588500004,5.32193183899959],[7.638045788000056,5.321959971999594],[7.6414752010000475,5.323142051999569],[7.64548301700006,5.323750972999607],[7.648910999000066,5.324934005999575],[7.650613785000075,5.326679229999558],[7.652317047000053,5.328423976999591],[7.654582024000035,5.33132791499957],[7.6562838550000265,5.333073138999552],[7.658548832000065,5.3359770769995825],[7.66080808600003,5.339457988999587],[7.662517071000026,5.340625762999574],[7.663646221000023,5.342367171999544],[7.66534900700003,5.3441119189995785],[7.666472912000073,5.346429824999575],[7.667591095000034,5.349325179999587],[7.668140888000039,5.351636886999569],[7.669820786000059,5.355690955999577],[7.670938969000076,5.358585834999583],[7.672625065000032,5.362061976999585],[7.673742771000037,5.364956855999591],[7.67599010500004,5.369593142999574],[7.676528931000065,5.373060225999603],[7.677055836000021,5.37768077899959],[7.677607059000024,5.379993915999564],[7.677584171000035,5.382303237999551],[7.676970005000042,5.3863382339995844],[7.67523288700005,5.388054847999551],[7.67120313600003,5.389753818999546],[7.668323994000048,5.3908848759995704],[7.66544103600006,5.39259290699957],[7.662568092000072,5.3931469919995525],[7.659700871000042,5.393124103999566],[7.657408237000027,5.393105983999583],[7.65511989600003,5.392508983999602],[7.65227079400006,5.390755176999602],[7.648273945000028,5.388990878999589],[7.646565914000062,5.387823104999576],[7.643722057000048,5.3854918479996075],[7.639742851000051,5.381997107999593],[7.636894226000039,5.380241870999602],[7.63347101200003,5.378482818999598],[7.631183147000059,5.37788820299958],[7.6283159260000275,5.377863883999545],[7.626017094000076,5.378423213999596],[7.624279976000025,5.3801398279995745],[7.623682976000055,5.382443904999583],[7.624234200000045,5.38475704199957],[7.625362873000029,5.386497020999561],[7.626492977000056,5.38823795299957],[7.627623081000025,5.389978885999571],[7.628752232000066,5.39171886399957],[7.629869938000068,5.394614219999574],[7.630993843000056,5.396932124999578],[7.631544113000076,5.399244784999604],[7.632089138000025,5.4021348949996],[7.633201122000059,5.405607223999573],[7.6337461470000685,5.4084968569995695],[7.634284019000063,5.41196393999956],[7.634262085000047,5.414272784999562],[7.634215832000051,5.418889998999582],[7.634766102000071,5.421203135999556],[7.636445999000045,5.425255774999573],[7.638136864000047,5.428154944999609],[7.639260769000031,5.430472850999581],[7.640964031000065,5.432219027999556],[7.6426668170000776,5.4339628219995975],[7.6466569900000545,5.436304091999576],[7.648932934000072,5.438054084999555],[7.651240826000048,5.440418719999559],[7.648028851000049,5.445036410999578],[7.6427946090000205,5.452474593999543],[7.63287639600003,5.471208571999551],[7.628192902000023,5.480299949999587],[7.625438213000053,5.491595744999552],[7.6235375400000285,5.496211051999569],[7.619371414000057,5.500503539999604],[7.606794357000069,5.507577895999555],[7.605257034000033,5.505528449999573],[7.594217777000041,5.506711482999579],[7.577647209000077,5.511944293999575]]]},"properties":{"OBJECTID":472,"LGACode":"1005","LGAName":"Ikwuano","StateCode":"AB","Source":"WHO","Timestamp":"2014-02-26T00:00:00.000Z","GlobalID":"{5BFBA040-DD0B-4DE8-90EF-105DE87E9437}","AMAPCODE":"NIE ABS KWU","SHAPE_STAr":0.0229745296822,"SHAPE_STLe":0.748310003438,"Shape_Leng":0.748310003438,"Shape_Area":0.0229745297087}},
{"type":"Feature","geometry":{"type":"Polygon","coordinates":[[[7.502546310000071,5.297855853999573],[7.498055458000068,5.301630019999591],[7.49719286000004,5.311550616999553],[7.499526978000063,5.324689387999559],[7.503942966000068,5.333520411999562],[7.506886482000028,5.346276759999552],[7.501980305000075,5.353636264999565],[7.49675416900004,5.3549032209995655],[7.485789776000047,5.357561110999587],[7.464692593000053,5.3590331079995925],[7.440651894000042,5.358051776999599],[7.420045853000033,5.357561110999587],[7.411214352000059,5.353636264999565],[7.4009113310000325,5.353145598999604],[7.387664318000077,5.353145598999604],[7.380795956000044,5.3506922719995975],[7.3722100260000625,5.349220752999583],[7.364850521000052,5.345295428999571],[7.347678661000032,5.344314574999589],[7.322165966000055,5.344805240999613],[7.303522110000073,5.348239421999602],[7.301665306000076,5.3456549639996],[7.301066399000036,5.343649863999574],[7.299880028000073,5.340500831999573],[7.298704624000038,5.338212489999577],[7.297532558000056,5.336211680999597],[7.296073914000033,5.334212302999613],[7.294328213000029,5.332215308999581],[7.293152809000049,5.32992696799959],[7.292263508000076,5.327637195999615],[7.291661263000037,5.32534503899962],[7.291628838000065,5.322762011999602],[7.2915887830000665,5.319604873999581],[7.292351246000066,5.311850070999573],[7.292039394000028,5.309843062999604],[7.29172372800002,5.307548999999583],[7.291099548000034,5.303534984999597],[7.290210724000077,5.301244735999599],[7.289038658000038,5.299243449999606],[7.287859440000033,5.296668529999573],[7.286687374000052,5.294667243999581],[7.284923553000056,5.29123544699962],[7.283740997000053,5.288372992999579],[7.282274723000056,5.285799979999562],[7.28078699100007,5.281504630999628],[7.279310226000065,5.278070926999574],[7.278711796000038,5.2760658259995825],[7.277812004000055,5.272914409999616],[7.276797295000051,5.260026454999585],[7.276068211000052,5.255671500999598],[7.273684025000021,5.252830981999577],[7.2715678220000655,5.249406814999577],[7.26976585400007,5.246843337999621],[7.267606735000072,5.242113589999561],[7.26694965400003,5.239419459999563],[7.278500557000029,5.234414100999561],[7.294691086000057,5.234414100999561],[7.301437855000075,5.238306521999617],[7.30744743300005,5.241773604999583],[7.3260908130000635,5.261398791999562],[7.338847160000057,5.274645328999602],[7.350622177000047,5.293779849999558],[7.365831852000042,5.30849885899958],[7.374662876000057,5.311442374999613],[7.383494377000034,5.3075175289995915],[7.3879098890000705,5.295742511999595],[7.388891220000063,5.28102350199958],[7.3884005550000325,5.2721924779995515],[7.3884005550000325,5.261398791999562],[7.388891220000063,5.252567290999585],[7.386437893000051,5.239320277999563],[7.383494377000034,5.224601745999615],[7.383494377000034,5.208411216999585],[7.384800434000056,5.20084381099957],[7.405081749000032,5.197617530999596],[7.4077129360000535,5.197814464999578],[7.424706936000065,5.199089049999597],[7.431085110000025,5.203995704999616],[7.441388130000065,5.209392547999579],[7.446587563000038,5.215139388999594],[7.459946632000026,5.22122526199962],[7.486580849000062,5.2524251939996125],[7.4919528960000425,5.258603095999599],[7.495357037000075,5.275135993999571],[7.496337891000051,5.285439490999561],[7.502546310000071,5.297855853999573]]]},"properties":{"OBJECTID":495,"LGACode":"1006","LGAName":"Isiala-Ngwa North","StateCode":"AB","Source":"WHO","Timestamp":"2014-02-26T00:00:00.000Z","GlobalID":"{D87CD30A-7532-41C6-9A98-905FE1934684}","AMAPCODE":"NIE ABS KPU","SHAPE_STAr":0.0230891557017,"SHAPE_STLe":0.812765407284,"Shape_Leng":0.812765407284,"Shape_Area":0.0230891556765}},
{"type":"Feature","geometry":{"type":"Polygon","coordinates":[[[7.5078678130000736,5.4345893859995416],[7.495111465000036,5.442930221999562],[7.477939606000064,5.451761245999565],[7.455370903000073,5.45666742299958],[7.433783531000074,5.458139419999573],[7.421517849000055,5.4596114159995475],[7.414158344000044,5.4615740779995985],[7.403364658000043,5.4615740779995985],[7.391589642000043,5.463536262999574],[7.382758141000067,5.468933104999609],[7.373539925000044,5.4751825329995905],[7.370636940000053,5.472332477999584],[7.3686013220000754,5.470050334999578],[7.366572857000049,5.468341826999605],[7.36424732200004,5.465774535999554],[7.36362648000005,5.462047576999545],[7.362443924000048,5.45918559999958],[7.361558437000042,5.457182406999597],[7.361246586000049,5.4551753999995425],[7.3603572850000205,5.452885150999569],[7.358891487000051,5.45031213799959],[7.357436180000037,5.448600291999553],[7.355974197000023,5.446313857999591],[7.3539457320000565,5.444605826999567],[7.351347446000034,5.443188666999595],[7.349050522000026,5.442917346999572],[7.34703302400004,5.442070006999571],[7.3435602190000395,5.439510821999575],[7.341238022000027,5.437230586999578],[7.339496136000036,5.435520648999613],[7.338041306000037,5.4338083269995945],[7.336299419000057,5.432098388999566],[7.335130692000062,5.430384158999565],[7.333367348000024,5.426951884999579],[7.3313279150000294,5.4243826869995875],[7.329564571000049,5.420950412999602],[7.328675747000034,5.418660640999551],[7.32749652900003,5.41608524299959],[7.326324463000049,5.414084434999577],[7.323980331000031,5.410081862999605],[7.3228011130000255,5.407506942999584],[7.321908474000055,5.404929637999581],[7.321574688000053,5.401200770999591],[7.322122574000048,5.399188041999584],[7.322649002000047,5.39545297599959],[7.322619915000075,5.393157004999563],[7.322576523000066,5.389712810999577],[7.322536945000022,5.386555671999564],[7.322224617000074,5.384548663999569],[7.321912766000026,5.382541655999599],[7.320152760000042,5.3793964389995965],[7.319267273000036,5.377393722999612],[7.318077564000021,5.373957156999591],[7.316600323000045,5.370523452999575],[7.315707684000072,5.3679461479995725],[7.314532280000038,5.365658282999614],[7.313356876000058,5.36336994199961],[7.311897755000075,5.361371039999583],[7.308726311000043,5.3599576949995855],[7.305711746000042,5.358143329999605],[7.304350376000057,5.353960036999566],[7.303461552000043,5.351670264999591],[7.303522110000073,5.348239421999602],[7.322165966000055,5.344805240999613],[7.347678661000032,5.344314574999589],[7.364850521000052,5.345295428999571],[7.3722100260000625,5.349220752999583],[7.380795956000044,5.3506922719995975],[7.387664318000077,5.353145598999604],[7.4009113310000325,5.353145598999604],[7.411214352000059,5.353636264999565],[7.420045853000033,5.357561110999587],[7.440651894000042,5.358051776999599],[7.464692593000053,5.3590331079995925],[7.485789776000047,5.357561110999587],[7.49675416900004,5.3549032209995655],[7.501980305000075,5.353636264999565],[7.506886482000028,5.346276759999552],[7.503942966000068,5.333520411999562],[7.499526978000063,5.324689387999559],[7.49719286000004,5.311550616999553],[7.498055458000068,5.301630019999591],[7.502546310000071,5.297855853999573],[7.509339809000039,5.299667357999553],[7.512662411000066,5.301256656999604],[7.520624161000057,5.305064200999593],[7.526776791000032,5.304973124999611],[7.535016060000032,5.303812980999559],[7.537847996000038,5.307299136999576],[7.5406980510000485,5.309052943999563],[7.5320696830000315,5.31411552399959],[7.530436516000067,5.315367698999574],[7.5270276070000355,5.318238257999616],[7.521114826000031,5.323217391999596],[7.517680168000028,5.332048892999572],[7.519642830000065,5.337936400999569],[7.527002335000077,5.3413705829996125],[7.5363240240000655,5.343823909999556],[7.544332981000026,5.34455203999958],[7.547117710000066,5.344805240999613],[7.553005219000055,5.347748755999578],[7.553005219000055,5.354617595999572],[7.547117710000066,5.358051776999599],[7.539268017000041,5.361977099999581],[7.525039673000037,5.364920615999601],[7.512773991000074,5.372770785999584],[7.510321140000031,5.380129813999586],[7.510321140000031,5.390923976999588],[7.510811329000035,5.403189658999553],[7.512283325000056,5.410058021999561],[7.511301994000062,5.415945529999569],[7.509830475000057,5.4277205469995655],[7.5078678130000736,5.4345893859995416]]]},"properties":{"OBJECTID":496,"LGACode":"1007","LGAName":"Isiala-Ngwa South","StateCode":"AB","Source":"WHO","Timestamp":"2014-02-26T00:00:00.000Z","GlobalID":"{01723591-A177-479D-963D-CCB61B00D612}","AMAPCODE":"NIE ABS MBA","SHAPE_STAr":0.0210598734527,"SHAPE_STLe":0.791284233698,"Shape_Leng":0.791284233698,"Shape_Area":0.0210598734708}},
{"type":"Feature","geometry":{"type":"Polygon","coordinates":[[[7.539571762000036,5.907232284999516],[7.518661499000075,5.908042907999516],[7.491677284000046,5.907552718999528],[7.479902267000058,5.905590056999541],[7.467636585000035,5.904608726999527],[7.452917576000061,5.907552718999528],[7.440651894000042,5.910986899999568],[7.429367542000023,5.914911746999568],[7.418083191000051,5.916874408999555],[7.402383327000052,5.914911746999568],[7.394222260000049,5.91017150899955],[7.395909786000062,5.907576560999539],[7.396443367000074,5.90441560699954],[7.396396160000052,5.9006848339995495],[7.396083832000045,5.8986778259995285],[7.394879341000036,5.894093512999531],[7.393707275000055,5.892092227999518],[7.392535686000029,5.890091418999537],[7.391345501000046,5.886655330999544],[7.391029835000039,5.884361266999533],[7.389560223000046,5.881501197999525],[7.389445782000053,5.879099845999534],[7.388624191000076,5.875480174999569],[7.38831186300007,5.873472690999554],[7.387415886000042,5.870608806999547],[7.387100220000037,5.868314742999536],[7.386788368000054,5.866307734999515],[7.386461735000069,5.863152980999548],[7.386432648000037,5.860856532999559],[7.386686802000042,5.858271598999537],[7.3872094150000285,5.854249953999565],[7.388312817000041,5.8507981299995295],[7.389423370000031,5.847919940999526],[7.389964104000058,5.845333098999572],[7.391048908000074,5.840445994999546],[7.391310215000033,5.838435172999542],[7.391854763000025,5.836134910999534],[7.3923993110000765,5.8338351249995695],[7.392649651000056,5.830963134999531],[7.391735554000035,5.826663970999571],[7.392265320000036,5.823215960999568],[7.392791748000036,5.81948137299954],[7.3930420880000725,5.816609382999566],[7.392987728000036,5.812304019999552],[7.392374516000074,5.809151172999538],[7.392632008000019,5.806853293999553],[7.392875195000045,5.8034071919995585],[7.393394470000033,5.799098014999525],[7.39364147200007,5.79593896899956],[7.39331865300005,5.79307126999954],[7.39355802500006,5.789338111999555],[7.3943529130000325,5.784166335999553],[7.394309521000026,5.7807221409995755],[7.393997192000029,5.778715133999534],[7.394251347000021,5.77613019899952],[7.393630981000056,5.7724032399995755],[7.394447803000047,5.768953322999569],[7.3949704170000246,5.764931201999577],[7.394629478000071,5.760628222999529],[7.3942809100000195,5.755751132999541],[7.3945317270000706,5.752879142999541],[7.394785881000075,5.750294208999569],[7.395036221000055,5.747422217999552],[7.395293713000056,5.745124339999584],[7.39609956700002,5.740813254999529],[7.396331787000065,5.736506461999523],[7.397148609000056,5.733056544999581],[7.3979544640000645,5.728745460999582],[7.3990502360000505,5.724719523999535],[7.400146008000034,5.720693587999581],[7.400393009000025,5.717534541999578],[7.400300980000053,5.712711810999584],[7.40287399300007,5.71179294599958],[7.411214352000059,5.7083587649995655],[7.4224991800000435,5.705414771999534],[7.439180374000044,5.701489924999533],[7.448502064000024,5.70345210999956],[7.466164589000073,5.6995272639995385],[7.485789776000047,5.70345210999956],[7.508358479000037,5.7113022799995425],[7.528473854000027,5.714246272999587],[7.545646191000058,5.71326494199953],[7.560364723000021,5.712774276999574],[7.564289570000029,5.716208457999549],[7.564289570000029,5.725039958999577],[7.568705559000023,5.738777160999523],[7.569196224000052,5.74858999299957],[7.568214893000061,5.76134586299953],[7.564289570000029,5.775083541999565],[7.558402061000036,5.783915042999541],[7.5515336990000606,5.789311885999568],[7.5490803720000486,5.79421806299957],[7.548589706000031,5.801577567999533],[7.545646191000058,5.8123712539995225],[7.546136379000075,5.82169294399955],[7.5490803720000486,5.830524444999539],[7.5519447330000276,5.843462943999564],[7.544806480000033,5.846794127999553],[7.539571762000036,5.8510770799995395],[7.538619995000031,5.858215331999549],[7.538604736000025,5.8698348999995575],[7.53814363500004,5.875823497999549],[7.540999413000065,5.890100001999542],[7.539571762000036,5.907232284999516]]]},"properties":{"OBJECTID":503,"LGACode":"1008","LGAName":"Isuikwuato","StateCode":"AB","Source":"WHO","Timestamp":"2014-02-26T00:00:00.000Z","GlobalID":"{EA14E444-134F-4636-8F81-F1D59F1B1097}","AMAPCODE":"NIE ABS MBL","SHAPE_STAr":0.0321372371773,"SHAPE_STLe":0.726509253254,"Shape_Leng":0.726509253254,"Shape_Area":0.0321372372021}},
{"type":"Feature","geometry":{"type":"Polygon","coordinates":[[[7.535016060000032,5.303812980999559],[7.526776791000032,5.304973124999611],[7.520624161000057,5.305064200999593],[7.512662411000066,5.301256656999604],[7.509339809000039,5.299667357999553],[7.502546310000071,5.297855853999573],[7.496337891000051,5.285439490999561],[7.495357037000075,5.275135993999571],[7.4919528960000425,5.258603095999599],[7.486580849000062,5.2524251939996125],[7.459946632000026,5.22122526199962],[7.446587563000038,5.215139388999594],[7.441388130000065,5.209392547999579],[7.431085110000025,5.203995704999616],[7.424706936000065,5.199089049999597],[7.4077129360000535,5.197814464999578],[7.405081749000032,5.197617530999596],[7.384800434000056,5.20084381099957],[7.3854565620000585,5.1932015419995885],[7.383985043000052,5.185842513999612],[7.382513046000042,5.180445670999585],[7.37662553800004,5.177011012999559],[7.3722100260000625,5.174067496999616],[7.365831852000042,5.167689322999609],[7.366813183000033,5.157385825999605],[7.3643598560000205,5.14610147499957],[7.3662319180000395,5.1362724299996225],[7.365308285000027,5.13410854299957],[7.369635582000058,5.134541511999601],[7.3822031020000605,5.133549212999584],[7.388486862000036,5.126935004999607],[7.392455578000068,5.121312617999595],[7.397747040000071,5.113044738999591],[7.401715755000056,5.104776381999622],[7.402377129000056,5.0981621739995955],[7.402708054000071,5.08857107199959],[7.400393009000025,5.078979968999594],[7.398077965000028,5.070712089999577],[7.392455578000068,5.062774657999582],[7.385290623000059,5.060147761999593],[7.385179520000065,5.057813643999571],[7.3848490720000655,5.0495457649996185],[7.3868331910000515,5.040285586999584],[7.389479160000063,5.036647796999616],[7.397416592000069,5.033340453999608],[7.406345844000042,5.0297026629995845],[7.410645485000032,5.024410724999616],[7.416267395000032,5.016473769999621],[7.418582439000033,5.012505053999585],[7.420185566000043,5.002353667999621],[7.4340286250000505,5.0101985929996],[7.444331646000024,5.015104770999594],[7.456106663000071,5.01952028299964],[7.473769188000062,5.029332637999585],[7.488488197000039,5.037673472999601],[7.51252889600005,5.044542312999569],[7.522831917000075,5.048957824999615],[7.52510213900007,5.050471305999585],[7.518901825000057,5.0531787869995926],[7.52028703700006,5.0549449919996094],[7.524289131000047,5.056130885999605],[7.525998116000039,5.057299136999579],[7.5294260980000445,5.058481215999626],[7.532269955000062,5.060812949999631],[7.535682201000042,5.063725947999614],[7.537951946000021,5.066052913999627],[7.54021596900003,5.068956851999594],[7.541335106000076,5.071852206999631],[7.541884899000024,5.074164866999593],[7.5429968830000576,5.077637195999631],[7.544672012000033,5.082266807999605],[7.545794964000039,5.084585189999596],[7.546906948000072,5.08805704099963],[7.546310902000071,5.090361117999588],[7.5445690160000245,5.092655181999587],[7.542825222000034,5.094950198999591],[7.54107713700006,5.097821235999623],[7.539913177000074,5.099544047999587],[7.538169861000027,5.101838111999599],[7.536415100000054,5.105287074999595],[7.5346608160000415,5.1087350849995845],[7.534063816000071,5.111039161999606],[7.533444881000037,5.115651130999609],[7.533967018000054,5.12085008599963],[7.53393316300003,5.1243119239996044],[7.533312798000052,5.128923892999595],[7.53328514100002,5.131810187999577],[7.53323316600006,5.137003898999574],[7.533771992000027,5.1404709819996155],[7.532590866000022,5.1439242359995925],[7.5314149860000725,5.14680099499959],[7.530807018000074,5.1502590179995895],[7.529047012000036,5.154283999999622],[7.527884007000069,5.156005858999605],[7.528978825000024,5.1612100599995845],[7.533421993000047,5.175673961999638],[7.539041042000065,5.1872630119996215],[7.5395741460000645,5.191307067999634],[7.540123940000058,5.193620204999608],[7.539523125000073,5.196500777999562],[7.540072918000021,5.198812961999568],[7.540032864000069,5.202853202999618],[7.540572166000061,5.206319808999584],[7.540543079000031,5.2092061039995805],[7.540509224000061,5.212667941999592],[7.541029930000035,5.217866897999619],[7.541552067000053,5.223065852999589],[7.541518211000039,5.2265281679996125],[7.5414891240000665,5.229413985999597],[7.542027950000033,5.232881068999575],[7.541413784000042,5.236916064999608],[7.5413908960000535,5.239223956999577],[7.541930199000035,5.242691993999578],[7.541902065000046,5.245576858999582],[7.54187297800007,5.248463153999578],[7.541839123000044,5.251924991999602],[7.542372227000042,5.255970000999582],[7.54349613200003,5.258286952999581],[7.545765877000063,5.260613917999589],[7.548030853000057,5.263517856999599],[7.549722195000072,5.266417979999578],[7.551987171000064,5.269320964999563],[7.553099155000042,5.272792815999584],[7.55307102200004,5.275679110999568],[7.551895142000034,5.278554915999631],[7.551299095000045,5.280858993999567],[7.549555779000058,5.283154010999559],[7.547227859000032,5.286598205999601],[7.5454912190000405,5.288314818999588],[7.543169022000029,5.291182040999608],[7.540278912000075,5.293467044999603],[7.538529873000074,5.296339034999616],[7.535634995000066,5.2992010119995685],[7.534471035000024,5.300922870999615],[7.535016060000032,5.303812980999559]]]},"properties":{"OBJECTID":601,"LGACode":"1009","LGAName":"Obi Nwga","StateCode":"AB","Source":"WHO","Timestamp":"2014-02-26T00:00:00.000Z","GlobalID":"{04C30704-5048-46B4-91E2-6CBAB087E88A}","AMAPCODE":"NIE ABS NGK","SHAPE_STAr":0.0322430500848,"SHAPE_STLe":0.864580891162,"Shape_Leng":0.864580891162,"Shape_Area":0.0322430500656}},
{"type":"Feature","geometry":{"type":"Polygon","coordinates":[[[7.890100002000052,5.68479967099957],[7.886259079000068,5.687846183999538],[7.870554447000075,5.693556785999554],[7.861988544000041,5.69736385299957],[7.840573311000071,5.710688590999576],[7.830579758000056,5.723062037999533],[7.820585728000026,5.727820872999545],[7.815351009000038,5.73591089199956],[7.803929806000042,5.74495315599957],[7.796791077000024,5.761609076999561],[7.793935776000068,5.777313708999551],[7.792984009000066,5.791590690999573],[7.786321640000041,5.804915427999575],[7.780373096000062,5.806818961999521],[7.764192581000032,5.813957213999518],[7.75657844500006,5.813005446999526],[7.728976727000031,5.815860747999528],[7.713078976000077,5.818000792999569],[7.714596272000051,5.810415744999548],[7.714940548000073,5.8031840319995505],[7.713735104000023,5.789064883999523],[7.713390827000068,5.77976655999955],[7.709602833000075,5.768057822999552],[7.709258556000064,5.7573823929995545],[7.705125809000037,5.748428821999566],[7.700649261000022,5.74154138599957],[7.692728519000069,5.734998225999584],[7.683430672000043,5.722256183999569],[7.6748213770000575,5.708826064999536],[7.664145470000049,5.692640304999567],[7.65691375700004,5.680243014999531],[7.656798363000065,5.67816162099957],[7.664317608000031,5.6726665499995415],[7.676026344000037,5.669911860999556],[7.68842363400006,5.671289443999542],[7.701165676000073,5.6771435739995795],[7.7097749710000585,5.6829977039995665],[7.72010612500003,5.682653426999565],[7.737324715000055,5.6788654329995625],[7.749377728000068,5.6726665499995415],[7.755232334000027,5.664746283999544],[7.759364605000031,5.6551036829995684],[7.7641859050000335,5.644083976999548],[7.7683181760000375,5.634785651999571],[7.7727952000000755,5.62479877499956],[7.779338360000052,5.608957766999557],[7.783814907000021,5.5951828959995575],[7.788980484000036,5.583818435999574],[7.791047096000057,5.575209140999596],[7.795523643000025,5.558334826999597],[7.801033974000064,5.548003673999538],[7.803788662000042,5.535262107999568],[7.80310010900007,5.522520064999548],[7.805510521000031,5.5104670519995524],[7.808265686000027,5.507023334999565],[7.814119816000073,5.5104670519995524],[7.824106693000033,5.5197653769995805],[7.842014313000048,5.532506942999577],[7.856822014000045,5.539738654999582],[7.874385357000051,5.543871402999534],[7.886782646000029,5.545937537999553],[7.895391941000071,5.551447391999568],[7.899524212000073,5.562123298999577],[7.904579163000052,5.568675517999549],[7.906092167000053,5.570636748999591],[7.9077491760000385,5.578310012999544],[7.909989834000043,5.587515830999582],[7.909954071000072,5.595561980999574],[7.911064148000037,5.602462768999572],[7.912174225000059,5.60936498599957],[7.913289070000076,5.615117072999531],[7.9132728580000276,5.618565082999533],[7.914371967000021,5.627766131999535],[7.914361954000072,5.630064010999584],[7.91433620500004,5.635811805999559],[7.916586876000053,5.642717837999582],[7.917696953000074,5.649620055999559],[7.915388107000069,5.655356883999589],[7.91079616500002,5.661083220999582],[7.906208992000074,5.665658950999561],[7.90162181900007,5.670236110999572],[7.897024155000054,5.677111148999551],[7.893288612000049,5.682270526999587],[7.890100002000052,5.68479967099957]]]},"properties":{"OBJECTID":627,"LGACode":"1010","LGAName":"Ohafia","StateCode":"AB","Source":"WHO","Timestamp":"2014-02-26T00:00:00.000Z","GlobalID":"{DB962865-0A0E-4B2A-BB1E-84F52620C3C4}","AMAPCODE":"NIE ABS HAF","SHAPE_STAr":0.0357878377097,"SHAPE_STLe":0.928640280946,"Shape_Leng":0.928640280946,"Shape_Area":0.035787837698}},
{"type":"Feature","geometry":{"type":"Polygon","coordinates":[[[7.384800434000056,5.20084381099957],[7.383494377000034,5.208411216999585],[7.383494377000034,5.224601745999615],[7.386437893000051,5.239320277999563],[7.388891220000063,5.252567290999585],[7.3884005550000325,5.261398791999562],[7.3884005550000325,5.2721924779995515],[7.388891220000063,5.28102350199958],[7.3879098890000705,5.295742511999595],[7.383494377000034,5.3075175289995915],[7.374662876000057,5.311442374999613],[7.365831852000042,5.30849885899958],[7.350622177000047,5.293779849999558],[7.338847160000057,5.274645328999602],[7.3260908130000635,5.261398791999562],[7.30744743300005,5.241773604999583],[7.301437855000075,5.238306521999617],[7.294691086000057,5.234414100999561],[7.278500557000029,5.234414100999561],[7.26694965400003,5.239419459999563],[7.266848564000042,5.236210345999599],[7.26676654800002,5.233611106999594],[7.266388416000041,5.230728625999567],[7.266306400000074,5.228129386999575],[7.266242504000045,5.226107596999598],[7.265254974000072,5.222081660999606],[7.264590740000074,5.219205378999608],[7.26391744600005,5.215610503999589],[7.274950027000045,5.209591865999589],[7.281322002000022,5.201615809999564],[7.286756992000051,5.191782950999595],[7.290813923000028,5.182426928999575],[7.292564869000046,5.172623157999574],[7.291069031000063,5.1600480079996],[7.287724972000033,5.147019862999574],[7.280218124000044,5.131694793999604],[7.27897930100005,5.119540690999613],[7.278698921000057,5.116788863999596],[7.271354198000041,5.103509902999596],[7.276047230000074,5.101945399999591],[7.28487873100005,5.098510741999591],[7.2907662390000505,5.089679717999626],[7.29518175100003,5.0769233699995855],[7.298615932000073,5.072998523999628],[7.3066811560000255,5.077480315999608],[7.308918953000045,5.080358027999599],[7.311372280000057,5.0857548709996125],[7.313825607000069,5.094095229999596],[7.3178691860000535,5.0996947289995695],[7.3202033040000725,5.102926730999585],[7.332468987000025,5.114701747999632],[7.343263149000053,5.121079921999589],[7.351112843000065,5.125495433999634],[7.357000351000067,5.130892276999585],[7.361540318000039,5.1323108669996],[7.365308285000027,5.13410854299957],[7.3662319180000395,5.1362724299996225],[7.3643598560000205,5.14610147499957],[7.366813183000033,5.157385825999605],[7.365831852000042,5.167689322999609],[7.3722100260000625,5.174067496999616],[7.37662553800004,5.177011012999559],[7.382513046000042,5.180445670999585],[7.383985043000052,5.185842513999612],[7.3854565620000585,5.1932015419995885],[7.384800434000056,5.20084381099957]]]},"properties":{"OBJECTID":677,"LGACode":"1011","LGAName":"Osisioma Ngwa","StateCode":"AB","Source":"WHO","Timestamp":"2014-02-26T00:00:00.000Z","GlobalID":"{F25B0909-14A3-4BA7-9EC3-36CC31C42E6F}","AMAPCODE":"NIE ABS SSM","SHAPE_STAr":0.0161308856402,"SHAPE_STLe":0.625107642693,"Shape_Leng":0.625107642693,"Shape_Area":0.0161308856785}},
{"type":"Feature","geometry":{"type":"Polygon","coordinates":[[[7.385290623000059,5.060147761999593],[7.3825340270000765,5.059136867999615],[7.376250267000046,5.057483195999583],[7.367981911000072,5.055498599999581],[7.361036777000037,5.055498599999581],[7.349461555000061,5.052191733999634],[7.3372249600000705,5.052191733999634],[7.325318813000025,5.053183555999578],[7.314074516000061,5.055168151999579],[7.308782578000034,5.062444209999569],[7.307129383000074,5.069058417999608],[7.307129383000074,5.074680804999633],[7.3066811560000255,5.077480315999608],[7.298615932000073,5.072998523999628],[7.29665374800004,5.066620349999607],[7.298615932000073,5.054845332999624],[7.3000879290000285,5.046013831999584],[7.30155992500005,5.034729480999612],[7.3000879290000285,5.026389121999629],[7.29518175100003,5.010688781999613],[7.292237759000045,5.004311084999603],[7.2907662390000505,4.994498252999646],[7.291747093000027,4.985176562999606],[7.29665374800004,4.977326392999624],[7.3010692600000775,4.972420215999608],[7.307938099000069,4.970457553999621],[7.310042381000074,4.970205306999649],[7.3202033040000725,4.968986033999628],[7.33443164800002,4.971929549999584],[7.344244003000027,4.973892211999622],[7.35405683500005,4.974873542999616],[7.36828470200004,4.977326392999624],[7.375644207000051,4.980761050999611],[7.39330673200004,4.982723235999587],[7.407044411000072,4.988610743999582],[7.414403439000068,4.993516921999577],[7.420185566000043,5.002353667999621],[7.418582439000033,5.012505053999585],[7.416267395000032,5.016473769999621],[7.410645485000032,5.024410724999616],[7.406345844000042,5.0297026629995845],[7.397416592000069,5.033340453999608],[7.389479160000063,5.036647796999616],[7.3868331910000515,5.040285586999584],[7.3848490720000655,5.0495457649996185],[7.385179520000065,5.057813643999571],[7.385290623000059,5.060147761999593]]]},"properties":{"OBJECTID":735,"LGACode":"1012","LGAName":"Ugwunagbo","StateCode":"AB","Source":"WHO","Timestamp":"2014-02-26T00:00:00.000Z","GlobalID":"{44C428F5-8EC8-4393-A9E1-1DD43FA08A16}","AMAPCODE":"NIE ABS GWB","SHAPE_STAr":0.00879574125122,"SHAPE_STLe":0.414875540783,"Shape_Leng":0.414875540783,"Shape_Area":0.00879574126735}},
{"type":"Feature","geometry":{"type":"Polygon","coordinates":[[[7.491546154000049,4.9467859269996275],[7.491506100000037,4.950826167999614],[7.492043972000033,4.954292773999632],[7.49141883900006,4.959482192999618],[7.489113808000068,4.960618018999614],[7.486248016000046,4.9605951309996135],[7.483953953000023,4.960577010999619],[7.481081963000064,4.961130141999616],[7.477046013000064,4.963407039999618],[7.473587990000056,4.965109824999646],[7.469545841000069,4.9679632189996195],[7.466083050000064,4.9702429769996055],[7.463192940000056,4.97252893399958],[7.461451054000065,4.974822997999605],[7.460275173000071,4.9776988029996305],[7.471143246000052,4.995911120999632],[7.474635124000031,4.997253894999586],[7.477856159000053,4.9979405399996155],[7.480381489000025,4.996567248999629],[7.4835996630000645,4.996338366999592],[7.485214233000023,4.998169421999615],[7.487752914000055,5.001602172999599],[7.489138603000072,5.003661632999595],[7.4905247690000465,5.006178855999636],[7.4919090270000765,5.007781028999621],[7.504658222000047,5.012110232999603],[7.506365776000052,5.013278007999608],[7.507490158000053,5.015594958999602],[7.508607864000055,5.018489837999607],[7.509726048000061,5.021385192999632],[7.511973858000034,5.026020049999623],[7.51193285000005,5.030059813999586],[7.509670258000027,5.034508704999619],[7.512274742000045,5.036597251999581],[7.515445709000062,5.0382175449996245],[7.5179724690000285,5.037302016999617],[7.520499706000067,5.036615371999575],[7.522722244000023,5.036539077999588],[7.52562522900007,5.0370969769995915],[7.527913094000041,5.037692069999607],[7.531323910000026,5.040605067999603],[7.53302717200006,5.042349814999573],[7.534151077000045,5.04466819799962],[7.534115791000033,5.048130988999637],[7.52510213900007,5.050471305999585],[7.522831917000075,5.048957824999615],[7.51252889600005,5.044542312999569],[7.488488197000039,5.037673472999601],[7.473769188000062,5.029332637999585],[7.456106663000071,5.01952028299964],[7.444331646000024,5.015104770999594],[7.4340286250000505,5.0101985929996],[7.420185566000043,5.002353667999621],[7.414403439000068,4.993516921999577],[7.407044411000072,4.988610743999582],[7.39330673200004,4.982723235999587],[7.375644207000051,4.980761050999611],[7.36828470200004,4.977326392999624],[7.35405683500005,4.974873542999616],[7.344244003000027,4.973892211999622],[7.33443164800002,4.971929549999584],[7.3202033040000725,4.968986033999628],[7.310042381000074,4.970205306999649],[7.310390949000067,4.961135863999594],[7.314806461000046,4.946907519999604],[7.3216753010000275,4.933660983999593],[7.327072144000056,4.925320147999585],[7.329525471000068,4.91943263999959],[7.330016136000039,4.909129619999611],[7.328053474000058,4.898826598999642],[7.329034805000048,4.886560916999637],[7.328053474000058,4.8806734089996295],[7.326064587000076,4.8761267659996],[7.330787182000052,4.873486041999602],[7.334217072000058,4.873313426999591],[7.340910912000025,4.872939109999631],[7.352412224000035,4.871914863999652],[7.360141277000025,4.86660385099961],[7.362020016000031,4.865313052999611],[7.37350702300006,4.862891196999636],[7.392834187000062,4.861804961999652],[7.406683922000069,4.865890979999656],[7.416359901000022,4.866746901999619],[7.429212093000047,4.86244916899963],[7.4365010260000295,4.854000091999611],[7.446667671000057,4.845414638999643],[7.455207825000059,4.845066070999647],[7.460362911000061,4.845418929999637],[7.4661884310000355,4.845414638999643],[7.471591473000047,4.84227704999963],[7.474380016000054,4.836699962999637],[7.478563309000036,4.833039760999638],[7.486754894000056,4.827636718999622],[7.487277985000048,4.824673652999628],[7.488712311000029,4.821804522999587],[7.491614819000063,4.8244318959996],[7.49331808100004,4.826177119999634],[7.494447231000038,4.82791805299966],[7.496728897000026,4.829091071999614],[7.497859001000052,4.83083105099963],[7.499560833000032,4.832575797999626],[7.500690937000059,4.834317206999609],[7.500668049000068,4.83662509899963],[7.500638962000039,4.839510917999605],[7.498889923000034,4.842381953999646],[7.497136116000036,4.845830916999629],[7.497669220000034,4.849874972999628],[7.498798847000046,4.851615905999629],[7.499338150000028,4.855082988999607],[7.498723984000037,4.85911798499964],[7.495840073000068,4.86082601499961],[7.493529797000066,4.862538814999619],[7.491219044000048,4.864252089999618],[7.49005508400006,4.865973948999614],[7.4888849260000265,4.868272780999606],[7.487716198000043,4.870572089999621],[7.486546040000063,4.872870921999625],[7.48538303400005,4.874592780999621],[7.484212875000024,4.876893043999622],[7.481891155000028,4.879758834999645],[7.480714798000064,4.882636069999612],[7.4806809430000385,4.886097907999636],[7.481207848000053,4.890719890999629],[7.481759071000057,4.893033027999615],[7.4811630250000585,4.895337104999636],[7.4805598260000465,4.898217200999604],[7.479963779000058,4.900520801999644],[7.4787950520000654,4.902820109999617],[7.478198051000049,4.905124186999651],[7.477023125000072,4.9079999919996125],[7.478095055000041,4.915512084999626],[7.47872114200004,4.919539927999633],[7.480790138000031,4.932847976999616],[7.482491970000069,4.93459320099961],[7.484200954000073,4.935760974999611],[7.487044811000032,4.93809318499965],[7.488173962000077,4.939833163999602],[7.4904451370000515,4.942160129999615],[7.491569042000037,4.944478034999582],[7.491546154000049,4.9467859269996275]]]},"properties":{"OBJECTID":739,"LGACode":"1013","LGAName":"Ukwa East","StateCode":"AB","Source":"WHO","Timestamp":"2014-02-26T00:00:00.000Z","GlobalID":"{A24B35D6-C37C-4A23-9C1F-8C4EA19B4978}","AMAPCODE":"NIE ABS KEK","SHAPE_STAr":0.0228376169676,"SHAPE_STLe":0.843806697202,"Shape_Leng":0.843806697202,"Shape_Area":0.0228376169846}},
{"type":"Feature","geometry":{"type":"Polygon","coordinates":[[[7.298615932000073,5.072998523999628],[7.29518175100003,5.0769233699995855],[7.2907662390000505,5.089679717999626],[7.28487873100005,5.098510741999591],[7.276047230000074,5.101945399999591],[7.271354198000041,5.103509902999596],[7.264222145000076,5.09452581399962],[7.2569308280000655,5.079692363999591],[7.255775928000048,5.077342986999615],[7.2528939250000235,5.0643119809996255],[7.251376152000034,5.04940605199961],[7.2516860960000695,5.0330867769996175],[7.248316765000028,5.017261981999593],[7.245464802000072,5.0074949259996115],[7.241197109000041,4.994009017999606],[7.235092163000046,4.98100423799958],[7.228350163000073,4.970958232999605],[7.217877865000049,4.961559771999604],[7.209084034000057,4.956501006999603],[7.199394226000037,4.954246997999606],[7.181393147000049,4.949262141999635],[7.168517113000064,4.944752215999608],[7.159626007000043,4.935448169999593],[7.150316238000073,4.924333095999619],[7.143767834000072,4.913196086999649],[7.140429020000055,4.900634765999612],[7.143746853000038,4.895613193999594],[7.147241116000031,4.890325068999603],[7.1559281350000665,4.883728980999622],[7.164652824000029,4.881329059999602],[7.173842907000051,4.879391192999631],[7.185287952000066,4.872307776999639],[7.191195965000077,4.863869189999629],[7.205420017000051,4.858627795999641],[7.21507501600007,4.857152938999625],[7.230735779000041,4.8579621319996455],[7.240856171000075,4.856948852999635],[7.257046223000031,4.865211963999595],[7.271389961000068,4.873023986999636],[7.2815279960000225,4.873876094999642],[7.2948908810000725,4.875168799999606],[7.307785988000035,4.875533103999632],[7.319794178000052,4.879632949999595],[7.326064587000076,4.8761267659996],[7.328053474000058,4.8806734089996295],[7.329034805000048,4.886560916999637],[7.328053474000058,4.898826598999642],[7.330016136000039,4.909129619999611],[7.329525471000068,4.91943263999959],[7.327072144000056,4.925320147999585],[7.3216753010000275,4.933660983999593],[7.314806461000046,4.946907519999604],[7.310390949000067,4.961135863999594],[7.310042381000074,4.970205306999649],[7.307938099000069,4.970457553999621],[7.3010692600000775,4.972420215999608],[7.29665374800004,4.977326392999624],[7.291747093000027,4.985176562999606],[7.2907662390000505,4.994498252999646],[7.292237759000045,5.004311084999603],[7.29518175100003,5.010688781999613],[7.3000879290000285,5.026389121999629],[7.30155992500005,5.034729480999612],[7.3000879290000285,5.046013831999584],[7.298615932000073,5.054845332999624],[7.29665374800004,5.066620349999607],[7.298615932000073,5.072998523999628]]]},"properties":{"OBJECTID":740,"LGACode":"1014","LGAName":"Ukwa West","StateCode":"AB","Source":"WHO","Timestamp":"2014-02-26T00:00:00.000Z","GlobalID":"{2BAE0FA4-5303-4C8A-9B50-DF3EA6C23EE2}","AMAPCODE":"NIE ABS KKE","SHAPE_STAr":0.0220709815692,"SHAPE_STLe":0.727432835799,"Shape_Leng":0.727432835799,"Shape_Area":0.022070981535}},
{"type":"Feature","geometry":{"type":"Polygon","coordinates":[[[7.384793282000033,6.037316798999536],[7.376340389000062,6.040006160999543],[7.361588001000028,6.04048204399953],[7.339062691000036,6.042149543999533],[7.338269234000051,6.036199092999535],[7.333034515000065,6.031440257999511],[7.322564602000056,6.00383853899955],[7.3182816510000634,5.998603343999538],[7.301625252000066,5.998127459999521],[7.283065796000074,5.998603343999538],[7.2725958820000765,5.997651576999534],[7.264029980000033,5.9914650919995545],[7.25927114500007,5.977664470999523],[7.2545123100000515,5.96529102299951],[7.256415844000059,5.950538634999537],[7.260983944000032,5.938930987999522],[7.262671471000034,5.936336039999562],[7.263219357000025,5.9343233109995674],[7.264627457000074,5.932304381999542],[7.267447472000072,5.92855358099956],[7.2691421510000405,5.92653274499953],[7.270840168000063,5.924798964999529],[7.273681641000053,5.922770022999544],[7.276820660000054,5.921600341999528],[7.279959679000059,5.920430659999519],[7.281955242000038,5.919555663999512],[7.2845211030000305,5.918389796999529],[7.287953854000021,5.917792319999548],[7.290239811000049,5.917202472999528],[7.293385983000063,5.916606902999565],[7.295962334000023,5.916301726999566],[7.300262451000037,5.916272162999527],[7.302838802000053,5.915967463999553],[7.305411816000059,5.915375709999517],[7.307701588000042,5.915072917999509],[7.309700966000037,5.914484977999557],[7.312277317000053,5.914180278999532],[7.315423489000067,5.913584708999568],[7.317999840000026,5.91328000999953],[7.3200030330000345,5.912979125999531],[7.322865963000027,5.912672519999553],[7.324872971000046,5.91265869099954],[7.3280224800000715,5.912349700999534],[7.331168652000031,5.911754130999544],[7.33517885200007,5.911439418999535],[7.338603973000034,5.910267829999561],[7.340890408000064,5.909677981999562],[7.343448639000031,5.907938003999563],[7.345731258000057,5.907061099999511],[7.350031376000061,5.9070315359995345],[7.353467941000076,5.906721114999532],[7.355757236000045,5.906418323999554],[7.358896255000048,5.905248641999545],[7.362891674000024,5.903785705999548],[7.367187977000071,5.9034690859995305],[7.369202137000058,5.9040293689995496],[7.371215820000032,5.90458965299956],[7.373803139000074,5.905145644999546],[7.37668085100006,5.905986785999532],[7.3784155850000275,5.907123088999527],[7.3804364200000245,5.90825748399954],[7.382457733000025,5.909391402999532],[7.385056019000045,5.9108085629995415],[7.387948036000068,5.912797927999516],[7.3919506070000685,5.9119091029995205],[7.394222260000049,5.91017150899955],[7.402383327000052,5.914911746999568],[7.418083191000051,5.916874408999555],[7.429367542000023,5.914911746999568],[7.440651894000042,5.910986899999568],[7.452917576000061,5.907552718999528],[7.467636585000035,5.904608726999527],[7.479902267000058,5.905590056999541],[7.491677284000046,5.907552718999528],[7.518661499000075,5.908042907999516],[7.539571762000036,5.907232284999516],[7.550041199000021,5.941496371999557],[7.552896500000029,5.953869819999519],[7.552896500000029,5.96529102299951],[7.553372383000066,5.98147153899953],[7.547191620000034,5.994943141999553],[7.533384800000022,6.0109767909995595],[7.520060062000026,6.020018577999558],[7.510541916000022,6.021446227999551],[7.4938859940000375,6.016687392999513],[7.475801945000056,6.012404441999531],[7.461525440000058,6.0147838589995155],[7.451531410000028,6.013832091999523],[7.430592060000037,6.0062179569995395],[7.415839672000061,6.0062179569995395],[7.404417992000048,6.012404441999531],[7.395852089000074,6.024777411999527],[7.386810303000062,6.03667497599951],[7.384793282000033,6.037316798999536]]]},"properties":{"OBJECTID":742,"LGACode":"1015","LGAName":"Umu-Nneochi","StateCode":"AB","Source":"WHO","Timestamp":"2014-02-26T00:00:00.000Z","GlobalID":"{A5755077-D15E-4AB5-A211-2B6A2BD4566D}","AMAPCODE":"NIE ABS UNC","SHAPE_STAr":0.0300960016266,"SHAPE_STLe":0.78335950788,"Shape_Leng":0.78335950788,"Shape_Area":0.0300960016299}},
{"type":"Feature","geometry":{"type":"Polygon","coordinates":[[[7.466164589000073,5.6995272639995385],[7.448502064000024,5.70345210999956],[7.439180374000044,5.701489924999533],[7.4224991800000435,5.705414771999534],[7.411214352000059,5.7083587649995655],[7.40287399300007,5.71179294599958],[7.400300980000053,5.712711810999584],[7.399729252000043,5.710363387999579],[7.396841049000044,5.708661078999519],[7.3939633370000575,5.707819938999563],[7.391956329000037,5.707833766999573],[7.38965940500003,5.707562446999536],[7.3865098950000725,5.707871436999555],[7.383066177000046,5.707608222999537],[7.381607533000022,5.70560884499954],[7.382155418000023,5.703596114999554],[7.382978916000071,5.700719832999568],[7.384001255000043,5.698827743999544],[7.385791779000044,5.696395396999567],[7.387203217000036,5.694663524999561],[7.3897433280000655,5.691488742999541],[7.391441822000048,5.68975448599954],[7.393147469000041,5.688594817999571],[7.395698547000051,5.686281203999585],[7.398252964000051,5.684254168999541],[7.400804043000051,5.681940555999534],[7.402800083000045,5.681065558999548],[7.405075073000035,5.679615020999582],[7.408195972000044,5.677010058999556],[7.410162926000053,5.673839091999534],[7.4109940530000245,5.6715373989995665],[7.4123950000000605,5.668944358999538],[7.413795471000071,5.666351794999542],[7.41519641900004,5.663758754999565],[7.416314125000042,5.661454677999557],[7.416575432000058,5.659443854999575],[7.417678833000024,5.655992030999539],[7.417932987000029,5.65340709699958],[7.417903900000055,5.651111125999552],[7.417584419000036,5.648530005999563],[7.418691635000074,5.64536476099957],[7.419798374000037,5.642199992999589],[7.4206328390000635,5.640185355999574],[7.421467781000045,5.638170241999572],[7.422574520000069,5.635005473999527],[7.425684452000041,5.631539821999546],[7.4265084270000425,5.628663539999573],[7.4276332860000585,5.626933574999571],[7.428460598000073,5.624344825999524],[7.428983212000048,5.620322703999553],[7.429513454000073,5.616874694999542],[7.432285786000022,5.609393119999579],[7.430239201000061,5.606249808999588],[7.429063797000026,5.603961944999545],[7.428457737000031,5.601382731999573],[7.427851677000034,5.598803519999554],[7.427235126000029,5.595363616999549],[7.426621914000065,5.592210769999573],[7.4262809750000525,5.587907313999576],[7.4259653090000475,5.585613250999569],[7.422786236000036,5.5836262699995345],[7.422467232000031,5.581045150999575],[7.419865608000067,5.579340934999575],[7.417270660000042,5.578210830999557],[7.415235043000053,5.575928687999551],[7.414919853000069,5.573634623999539],[7.415173531000051,5.571049689999568],[7.41627311700006,5.567310332999555],[7.417093277000049,5.564147471999577],[7.417355061000024,5.562136649999587],[7.424952030000042,5.56018972399958],[7.439180374000044,5.561661719999581],[7.447030067000072,5.562642573999575],[7.4563522340000645,5.557736396999561],[7.458805084000062,5.549396037999564],[7.457333565000055,5.5390925409995875],[7.458314419000033,5.521920680999552],[7.468127251000056,5.517995833999564],[7.484317780000025,5.512598990999588],[7.500017643000035,5.509164332999587],[7.51522731800003,5.505239486999553],[7.532399178000048,5.505239486999553],[7.542587280000021,5.503124713999553],[7.552023888000066,5.509164332999587],[7.56134605400007,5.512108325999555],[7.575573921000054,5.512598990999588],[7.577647209000077,5.511944293999575],[7.580971241000042,5.527317523999578],[7.579989910000052,5.5395832059995564],[7.581952095000075,5.553320884999565],[7.579989910000052,5.5665678979996],[7.57164907500004,5.578833579999553],[7.550061703000039,5.588645934999562],[7.527002335000077,5.603364467999565],[7.5147366520000665,5.612686633999561],[7.502470970000047,5.634764670999536],[7.492658615000039,5.647521018999576],[7.4794116020000265,5.6681270599995885],[7.47563505200003,5.681345462999582],[7.473524094000028,5.688733577999535],[7.466164589000073,5.6995272639995385]]]},"properties":{"OBJECTID":743,"LGACode":"1016","LGAName":"Umuahia North","StateCode":"AB","Source":"WHO","Timestamp":"2014-02-26T00:00:00.000Z","GlobalID":"{EBEAB255-44AE-4325-BBE5-B082E9C0BF37}","AMAPCODE":"NIE ABS UMA","SHAPE_STAr":0.019966027188,"SHAPE_STLe":0.696224243032,"Shape_Leng":0.696224243032,"Shape_Area":0.0199660272112}},
{"type":"Feature","geometry":{"type":"Polygon","coordinates":[[[7.542587280000021,5.503124713999553],[7.532399178000048,5.505239486999553],[7.51522731800003,5.505239486999553],[7.500017643000035,5.509164332999587],[7.484317780000025,5.512598990999588],[7.468127251000056,5.517995833999564],[7.458314419000033,5.521920680999552],[7.457333565000055,5.5390925409995875],[7.458805084000062,5.549396037999564],[7.4563522340000645,5.557736396999561],[7.447030067000072,5.562642573999575],[7.439180374000044,5.561661719999581],[7.424952030000042,5.56018972399958],[7.417355061000024,5.562136649999587],[7.41588878600004,5.55956363699957],[7.414143562000049,5.557566165999578],[7.411530972000038,5.5550012589995665],[7.4094986920000565,5.553005694999527],[7.40831232100004,5.549856662999589],[7.407996655000034,5.547562598999565],[7.408533573000056,5.544688701999535],[7.408795357000031,5.542677878999578],[7.407587051000065,5.537806510999556],[7.407274723000057,5.535799502999535],[7.406669140000077,5.533220767999554],[7.404317856000035,5.528644561999579],[7.402851582000039,5.526071071999576],[7.401679516000059,5.52407026299957],[7.4002208710000446,5.522070884999573],[7.398192406000021,5.520362853999549],[7.396153450000042,5.517793654999565],[7.39382028600005,5.514652251999595],[7.3926444050000555,5.512364387999565],[7.390909672000022,5.511228084999557],[7.388032436000058,5.5103869439995705],[7.387132645000065,5.5072360039995605],[7.385655880000058,5.503801822999584],[7.384766579000028,5.5015115739995855],[7.383598328000063,5.4997973439995835],[7.382408142000031,5.496361255999578],[7.381228924000026,5.493786334999553],[7.379763126000058,5.491213321999549],[7.379142284000067,5.48748588599958],[7.378540039000029,5.485194205999597],[7.377647400000057,5.482616900999556],[7.376170635000049,5.479182719999554],[7.37499523200006,5.476894854999609],[7.373539925000044,5.4751825329995905],[7.382758141000067,5.468933104999609],[7.391589642000043,5.463536262999574],[7.403364658000043,5.4615740779995985],[7.414158344000044,5.4615740779995985],[7.421517849000055,5.4596114159995475],[7.433783531000074,5.458139419999573],[7.455370903000073,5.45666742299958],[7.477939606000064,5.451761245999565],[7.495111465000036,5.442930221999562],[7.5078678130000736,5.4345893859995416],[7.515809536000064,5.438166617999553],[7.525039673000037,5.447836398999551],[7.530927181000038,5.4605927469995414],[7.534852028000046,5.482670783999566],[7.542587280000021,5.503124713999553]]]},"properties":{"OBJECTID":744,"LGACode":"1017","LGAName":"Umuahia South","StateCode":"AB","Source":"WHO","Timestamp":"2014-02-26T00:00:00.000Z","GlobalID":"{660D0DBF-7FFC-4E7F-9B35-FCE4B706075A}","AMAPCODE":"NIE ABS APR","SHAPE_STAr":0.0114590978847,"SHAPE_STLe":0.489029713787,"Shape_Leng":0.489029713787,"Shape_Area":0.0114590978513}}
]}